[
  {
    "name": "STARLINK-36101",
    "tle1": "1 66867U 25281V   26079.62356156  .00029728  00000+0  10847-2 0  9998",
    "tle2": "2 66867  43.0009 282.0732 0001896 257.0551 103.0089 15.27602356 17842"
  },
  {
    "name": "STARLINK-36108",
    "tle1": "1 66868U 25281W   26079.61970566  .00031818  00000+0  11605-2 0  9991",
    "tle2": "2 66868  43.0000 282.0441 0001015 238.7153 121.3600 15.27588496 17848"
  },
  {
    "name": "STARLINK-36092",
    "tle1": "1 66869U 25281X   26079.61328514  .00033927  00000+0  12353-2 0  9996",
    "tle2": "2 66869  42.9987 281.9936 0001420 208.6544 151.4229 15.27617588 17844"
  },
  {
    "name": "STARLINK-36114",
    "tle1": "1 66870U 25281Y   26079.60943381  .00017596  00000+0  64713-3 0  9994",
    "tle2": "2 66870  43.0005 281.9667 0001122 266.4530  93.6193 15.27594426 17848"
  },
  {
    "name": "STARLINK-36095",
    "tle1": "1 66871U 25281Z   26079.60557430  .00021843  00000+0  80039-3 0  9990",
    "tle2": "2 66871  42.9993 281.9348 0002078 281.3676  78.6942 15.27600967 17839"
  },
  {
    "name": "STARLINK-36082",
    "tle1": "1 66872U 25281AA  26079.60171759  .00018106  00000+0  66533-3 0  9998",
    "tle2": "2 66872  42.9982 281.9073 0001423 288.4126  71.6571 15.27606450 17849"
  },
  {
    "name": "STARLINK-36128",
    "tle1": "1 66873U 25281AB  26079.59144296  .00016580  00000+0  61040-3 0  9995",
    "tle2": "2 66873  42.9946 281.8272 0000806 289.7533  70.3232 15.27593932 17794"
  },
  {
    "name": "STARLINK-36129",
    "tle1": "1 66874U 25281AC  26079.59787466  .00033735  00000+0  12302-2 0  9995",
    "tle2": "2 66874  42.9999 281.8766 0001379 270.3423  89.7270 15.27569885 17843"
  },
  {
    "name": "STARLINK-36053",
    "tle1": "1 66875U 25281AD  26079.58758324  .00013719  00000+0  50699-3 0  9998",
    "tle2": "2 66875  42.9956 281.7966 0001622 284.1663  75.9008 15.27588816 17793"
  },
  {
    "name": "STARLINK-35702",
    "tle1": "1 66876U 25281AE  26079.59401183  .00015839  00000+0  58358-3 0  9993",
    "tle2": "2 66876  42.9974 281.8467 0000858 281.0781  78.9974 15.27594789 17845"
  },
  {
    "name": "STARLINK-35866",
    "tle1": "1 66878U 25283A   26078.99658449  .00018499  00000+0  63504-3 0  9993",
    "tle2": "2 66878  53.1588 336.1901 0000791  65.4776 294.6308 15.30206421 17422"
  },
  {
    "name": "STARLINK-35749",
    "tle1": "1 66879U 25283B   26079.44218029  .00014755  00000+0  50928-3 0  9998",
    "tle2": "2 66879  53.1605 333.9944 0001282  95.8576 264.2571 15.30201037 17496"
  },
  {
    "name": "STARLINK-35844",
    "tle1": "1 66880U 25283C   26079.12090373  .00040536  00000+0  13730-2 0  9990",
    "tle2": "2 66880  53.1598 335.5444 0001372 119.4324 240.6814 15.30207614 17446"
  },
  {
    "name": "STARLINK-35860",
    "tle1": "1 66881U 25283D   26079.43584764  .00009082  00000+0  31834-3 0  9994",
    "tle2": "2 66881  53.1616 333.9523 0001265  93.8492 266.2653 15.30206519 17493"
  },
  {
    "name": "STARLINK-35912",
    "tle1": "1 66882U 25283E   26079.42540792  .00008659  00000+0  30407-3 0  9991",
    "tle2": "2 66882  53.1616 334.6029 0001364  87.6798 272.4359 15.30205091 17488"
  },
  {
    "name": "STARLINK-35947",
    "tle1": "1 66883U 25283F   26079.42329757  .00010377  00000+0  36186-3 0  9998",
    "tle2": "2 66883  53.1604 334.5897 0001170  86.7441 273.3693 15.30210596 17508"
  }
]