[{"OBJECT_NAME":"STARLINK-36101","OBJECT_ID":"2025-281V","EPOCH":"2026-03-20T14:57:55.718784","MEAN_MOTION":15.27602356,"ECCENTRICITY":0.00018966,"INCLINATION":43.0009,"RA_OF_ASC_NODE":282.0732,"ARG_OF_PERICENTER":257.0551,"MEAN_ANOMALY":103.0089,"EPHEMERIS_TYPE":0,"CLASSIFICATION_TYPE":"U","NORAD_CAT_ID":66867,"ELEMENT_SET_NO":999,"REV_AT_EPOCH":1784,"BSTAR":0.0010847271,"MEAN_MOTION_DOT":0.00029728,"MEAN_MOTION_DDOT":0},{"OBJECT_NAME":"STARLINK-36108","OBJECT_ID":"2025-281W","EPOCH":"2026-03-20T14:52:22.569024","MEAN_MOTION":15.27588496,"ECCENTRICITY":0.00010159,"INCLINATION":43,"RA_OF_ASC_NODE":282.0441,"ARG_OF_PERICENTER":238.7153,"MEAN_ANOMALY":121.36,"EPHEMERIS_TYPE":0,"CLASSIFICATION_TYPE":"U","NORAD_CAT_ID":66868,"ELEMENT_SET_NO":999,"REV_AT_EPOCH":1784,"BSTAR":0.0011604894,"MEAN_MOTION_DOT":0.00031818,"MEAN_MOTION_DDOT":0},{"OBJECT_NAME":"STARLINK-36092","OBJECT_ID":"2025-281X","EPOCH":"2026-03-20T14:43:07.836096","MEAN_MOTION":15.27617588,"ECCENTRICITY":0.00014201,"INCLINATION":42.9987,"RA_OF_ASC_NODE":281.9936,"ARG_OF_PERICENTER":208.6544,"MEAN_ANOMALY":151.4229,"EPHEMERIS_TYPE":0,"CLASSIFICATION_TYPE":"U","NORAD_CAT_ID":66869,"ELEMENT_SET_NO":999,"REV_AT_EPOCH":1784,"BSTAR":0.0012353323,"MEAN_MOTION_DOT":0.00033927,"MEAN_MOTION_DDOT":0},{"OBJECT_NAME":"STARLINK-36114","OBJECT_ID":"2025-281Y","EPOCH":"2026-03-20T14:37:35.081184","MEAN_MOTION":15.27594426,"ECCENTRICITY":0.00011228,"INCLINATION":43.0005,"RA_OF_ASC_NODE":281.9667,"ARG_OF_PERICENTER":266.453,"MEAN_ANOMALY":93.6193,"EPHEMERIS_TYPE":0,"CLASSIFICATION_TYPE":"U","NORAD_CAT_ID":66870,"ELEMENT_SET_NO":999,"REV_AT_EPOCH":1784,"BSTAR":0.00064712886,"MEAN_MOTION_DOT":0.00017596,"MEAN_MOTION_DDOT":0},{"OBJECT_NAME":"STARLINK-36095","OBJECT_ID":"2025-281Z","EPOCH":"2026-03-20T14:32:01.619520","MEAN_MOTION":15.27600967,"ECCENTRICITY":0.00020788,"INCLINATION":42.9993,"RA_OF_ASC_NODE":281.9348,"ARG_OF_PERICENTER":281.3676,"MEAN_ANOMALY":78.6942,"EPHEMERIS_TYPE":0,"CLASSIFICATION_TYPE":"U","NORAD_CAT_ID":66871,"ELEMENT_SET_NO":999,"REV_AT_EPOCH":1783,"BSTAR":0.00080039492,"MEAN_MOTION_DOT":0.00021843,"MEAN_MOTION_DDOT":0},{"OBJECT_NAME":"STARLINK-36082","OBJECT_ID":"2025-281AA","EPOCH":"2026-03-20T14:26:28.399776","MEAN_MOTION":15.2760645,"ECCENTRICITY":0.0001423,"INCLINATION":42.9982,"RA_OF_ASC_NODE":281.9073,"ARG_OF_PERICENTER":288.4126,"MEAN_ANOMALY":71.6571,"EPHEMERIS_TYPE":0,"CLASSIFICATION_TYPE":"U","NORAD_CAT_ID":66872,"ELEMENT_SET_NO":999,"REV_AT_EPOCH":1784,"BSTAR":0.00066532778,"MEAN_MOTION_DOT":0.00018106,"MEAN_MOTION_DDOT":0},{"OBJECT_NAME":"STARLINK-36128","OBJECT_ID":"2025-281AB","EPOCH":"2026-03-20T14:11:40.671744","MEAN_MOTION":15.27593932,"ECCENTRICITY":8.061e-5,"INCLINATION":42.9946,"RA_OF_ASC_NODE":281.8272,"ARG_OF_PERICENTER":289.7533,"MEAN_ANOMALY":70.3232,"EPHEMERIS_TYPE":0,"CLASSIFICATION_TYPE":"U","NORAD_CAT_ID":66873,"ELEMENT_SET_NO":999,"REV_AT_EPOCH":1779,"BSTAR":0.00061039896,"MEAN_MOTION_DOT":0.0001658,"MEAN_MOTION_DDOT":0},{"OBJECT_NAME":"STARLINK-36129","OBJECT_ID":"2025-281AC","EPOCH":"2026-03-20T14:20:56.370624","MEAN_MOTION":15.27569885,"ECCENTRICITY":0.00013794,"INCLINATION":42.9999,"RA_OF_ASC_NODE":281.8766,"ARG_OF_PERICENTER":270.3423,"MEAN_ANOMALY":89.727,"EPHEMERIS_TYPE":0,"CLASSIFICATION_TYPE":"U","NORAD_CAT_ID":66874,"ELEMENT_SET_NO":999,"REV_AT_EPOCH":1784,"BSTAR":0.0012301981,"MEAN_MOTION_DOT":0.00033735,"MEAN_MOTION_DDOT":0},{"OBJECT_NAME":"STARLINK-36053","OBJECT_ID":"2025-281AD","EPOCH":"2026-03-20T14:06:07.191936","MEAN_MOTION":15.27588816,"ECCENTRICITY":0.00016229,"INCLINATION":42.9956,"RA_OF_ASC_NODE":281.7966,"ARG_OF_PERICENTER":284.1663,"MEAN_ANOMALY":75.9008,"EPHEMERIS_TYPE":0,"CLASSIFICATION_TYPE":"U","NORAD_CAT_ID":66875,"ELEMENT_SET_NO":999,"REV_AT_EPOCH":1779,"BSTAR":0.00050698691,"MEAN_MOTION_DOT":0.00013719,"MEAN_MOTION_DDOT":0},{"OBJECT_NAME":"STARLINK-35702","OBJECT_ID":"2025-281AE","EPOCH":"2026-03-20T14:15:22.622112","MEAN_MOTION":15.27594789,"ECCENTRICITY":8.587e-5,"INCLINATION":42.9974,"RA_OF_ASC_NODE":281.8467,"ARG_OF_PERICENTER":281.0781,"MEAN_ANOMALY":78.9974,"EPHEMERIS_TYPE":0,"CLASSIFICATION_TYPE":"U","NORAD_CAT_ID":66876,"ELEMENT_SET_NO":999,"REV_AT_EPOCH":1784,"BSTAR":0.0005835813,"MEAN_MOTION_DOT":0.00015839,"MEAN_MOTION_DDOT":0},{"OBJECT_NAME":"STARLINK-35866","OBJECT_ID":"2025-283A","EPOCH":"2026-03-19T23:55:04.899936","MEAN_MOTION":15.30206421,"ECCENTRICITY":7.913e-5,"INCLINATION":53.1588,"RA_OF_ASC_NODE":336.1901,"ARG_OF_PERICENTER":65.4776,"MEAN_ANOMALY":294.6308,"EPHEMERIS_TYPE":0,"CLASSIFICATION_TYPE":"U","NORAD_CAT_ID":66878,"ELEMENT_SET_NO":999,"REV_AT_EPOCH":1742,"BSTAR":0.00063503539,"MEAN_MOTION_DOT":0.00018499,"MEAN_MOTION_DDOT":0},{"OBJECT_NAME":"STARLINK-35749","OBJECT_ID":"2025-283B","EPOCH":"2026-03-20T10:36:44.377056","MEAN_MOTION":15.30201037,"ECCENTRICITY":0.00012821,"INCLINATION":53.1605,"RA_OF_ASC_NODE":333.9944,"ARG_OF_PERICENTER":95.8576,"MEAN_ANOMALY":264.2571,"EPHEMERIS_TYPE":0,"CLASSIFICATION_TYPE":"U","NORAD_CAT_ID":66879,"ELEMENT_SET_NO":999,"REV_AT_EPOCH":1749,"BSTAR":0.00050927849,"MEAN_MOTION_DOT":0.00014755,"MEAN_MOTION_DDOT":0},{"OBJECT_NAME":"STARLINK-35844","OBJECT_ID":"2025-283C","EPOCH":"2026-03-20T02:54:06.082272","MEAN_MOTION":15.30207614,"ECCENTRICITY":0.00013721,"INCLINATION":53.1598,"RA_OF_ASC_NODE":335.5444,"ARG_OF_PERICENTER":119.4324,"MEAN_ANOMALY":240.6814,"EPHEMERIS_TYPE":0,"CLASSIFICATION_TYPE":"U","NORAD_CAT_ID":66880,"ELEMENT_SET_NO":999,"REV_AT_EPOCH":1744,"BSTAR":0.0013729797,"MEAN_MOTION_DOT":0.00040536,"MEAN_MOTION_DDOT":0},{"OBJECT_NAME":"STARLINK-35860","OBJECT_ID":"2025-283D","EPOCH":"2026-03-20T10:27:37.236096","MEAN_MOTION":15.30206519,"ECCENTRICITY":0.00012651,"INCLINATION":53.1616,"RA_OF_ASC_NODE":333.9523,"ARG_OF_PERICENTER":93.8492,"MEAN_ANOMALY":266.2653,"EPHEMERIS_TYPE":0,"CLASSIFICATION_TYPE":"U","NORAD_CAT_ID":66881,"ELEMENT_SET_NO":999,"REV_AT_EPOCH":1749,"BSTAR":0.00031833564,"MEAN_MOTION_DOT":9.082e-5,"MEAN_MOTION_DDOT":0},{"OBJECT_NAME":"STARLINK-35912","OBJECT_ID":"2025-283E","EPOCH":"2026-03-20T10:12:35.244288","MEAN_MOTION":15.30205091,"ECCENTRICITY":0.00013642,"INCLINATION":53.1616,"RA_OF_ASC_NODE":334.6029,"ARG_OF_PERICENTER":87.6798,"MEAN_ANOMALY":272.4359,"EPHEMERIS_TYPE":0,"CLASSIFICATION_TYPE":"U","NORAD_CAT_ID":66882,"ELEMENT_SET_NO":999,"REV_AT_EPOCH":1748,"BSTAR":0.00030407445,"MEAN_MOTION_DOT":8.659e-5,"MEAN_MOTION_DDOT":0},{"OBJECT_NAME":"STARLINK-35947","OBJECT_ID":"2025-283F","EPOCH":"2026-03-20T10:09:32.910048","MEAN_MOTION":15.30210596,"ECCENTRICITY":0.00011703,"INCLINATION":53.1604,"RA_OF_ASC_NODE":334.5897,"ARG_OF_PERICENTER":86.7441,"MEAN_ANOMALY":273.3693,"EPHEMERIS_TYPE":0,"CLASSIFICATION_TYPE":"U","NORAD_CAT_ID":66883,"ELEMENT_SET_NO":999,"REV_AT_EPOCH":1750,"BSTAR":0.00036186053,"MEAN_MOTION_DOT":0.00010377,"MEAN_MOTION_DDOT":0}]
